NORAD_CAT_ID,OBJECT_NAME,OBJECT_TYPE,EPOCH,MEAN_MOTION,ECCENTRICITY,INCLINATION,RA_OF_ASC_NODE,ARG_OF_PERICENTER,MEAN_ANOMALY,BSTAR,MEAN_MOTION_DOT,MEAN_MOTION_DDOT,TLE_LINE0,TLE_LINE1,TLE_LINE2,SEMIMAJOR_AXIS,PERIOD,APOGEE,PERIGEE,DECAYED
52090.0,STARLINK-3712,PAYLOAD,2022-08-05 14:00:01,15.08850321,0.0002395,53.2137,219.3913,51.2,233.0765,-0.0013142,-0.0002115,0.0,0 STARLINK-3712,1 52090U 22029C   22217.58335648 -.00021150  00000-0 -13142-2 0  9991,2 52090  53.2137 219.3913 0002395  51.2000 233.0765 15.08850321  1307,6917.849,95.437,541.371,538.057,0.0
52090.0,STARLINK-3712,PAYLOAD,2022-08-05 22:00:00,15.08820816,0.0002320999999999,53.2138,217.8933,56.6351,239.1849,0.0025959,0.00041247,0.0,0 STARLINK-3712,1 52090U 22029C   22217.91667824  .00041247  00000-0  25959-2 0  9998,2 52090  53.2138 217.8933 0002321  56.6351 239.1849 15.08820816  1306,6917.939,95.439,541.41,538.198,0.0
52090.0,STARLINK-3712,PAYLOAD,2022-08-06 04:00:03,15.08857886,0.0002424999999999,53.2139,216.7721,55.4049,159.2299,-0.0016823,-0.00026977,0.0,0 STARLINK-3712,1 52090U 22029C   22218.16670139 -.00026977  00000-0 -16823-2 0  9994,2 52090  53.2139 216.7721 0002425  55.4049 159.2299 15.08857886 22655,6917.826,95.436,541.368,538.013,0.0
52090.0,STARLINK-3712,PAYLOAD,2022-08-06 14:00:01,15.08859612,0.0002493,53.2137,214.9019,52.0578,266.9484,-0.0016799,-0.0002694,0.0,0 STARLINK-3712,1 52090U 22029C   22218.58334491 -.00026940  00000-0 -16799-2 0  9990,2 52090  53.2137 214.9019 0002493  52.0578 266.9484 15.08859612  1308,6917.82,95.436,541.41,537.961,0.0
52090.0,STARLINK-3712,PAYLOAD,2022-08-06 20:00:01,15.08826965,0.0002401999999999,53.2139,213.7782,56.1239,181.5987,0.0024251999999999,0.00038507,0.0,0 STARLINK-3712,1 52090U 22029C   22218.83334491  .00038507  00000-0  24252-2 0  9991,2 52090  53.2139 213.7782 0002402  56.1239 181.5987 15.08826965 22750,6917.92,95.438,541.447,538.124,0.0
52090.0,STARLINK-3712,PAYLOAD,2022-08-06 22:00:00,15.08829466,0.0002424999999999,53.2139,213.404,57.6003,273.0208,0.002627,0.00041758,0.0,0 STARLINK-3712,1 52090U 22029C   22218.91667824  .00041758  00000-0  26270-2 0  9993,2 52090  53.2139 213.4040 0002425  57.6003 273.0208 15.08829466  1304,6917.913000000001,95.438,541.455,538.1,0.0
52090.0,STARLINK-3712,PAYLOAD,2022-08-07 14:00:01,15.08881232,0.0002541,53.2138,210.4124,52.808,301.0168,-0.0044157,-0.00069965,0.0,0 STARLINK-3712,1 52090U 22029C   22219.58334491 -.00069965  00000-0 -44157-2 0  9994,2 52090  53.2138 210.4124 0002541  52.8080 301.0168 15.08881232 22864,6917.754,95.435,541.377,537.862,0.0
52090.0,STARLINK-3712,PAYLOAD,2022-08-07 22:00:00,15.08814696,0.0002413,53.2141,208.9146,57.5519,307.8981,0.0025263,0.0004011999999999,0.0,0 STARLINK-3712,1 52090U 22029C   22219.91667824  .00040120  00000-0  25263-2 0  9997,2 52090  53.2141 208.9146 0002413  57.5519 307.8981 15.08814696  1304,6917.958000000001,95.439,541.492,538.153,0.0
52090.0,STARLINK-3712,PAYLOAD,2022-08-08 04:00:00,15.08848396,0.0002519,53.2141,207.7936,55.4289,228.7072,-0.0013395999999999,-0.00021551,0.0,0 STARLINK-3712,1 52090U 22029C   22220.16667824 -.00021551  00000-0 -13396-2 0  9999,2 52090  53.2141 207.7936 0002519  55.4289 228.7072 15.08848396 22956,6917.855,95.437,541.462,537.977,0.0
52090.0,STARLINK-3712,PAYLOAD,2022-08-08 14:00:01,15.08861237,0.0002537,53.2139,205.9228,54.0819,334.6095,-0.0017472999999999,-0.00028007,0.0,0 STARLINK-3712,1 52090U 22029C   22220.58335648 -.00028007  00000-0 -17473-2 0  9994,2 52090  53.2139 205.9228 0002537  54.0819 334.6095 15.08861237  1308,6917.815,95.436,541.436,537.925,0.0
52090.0,STARLINK-3712,PAYLOAD,2022-08-08 22:00:00,15.08847246,0.0002415,53.2142,204.4253,59.0971,341.1423,0.00068489,0.00010631,0.0,0 STARLINK-3712,1 52090U 22029C   22220.91667824  .00010631  00000-0  68489-3 0  9991,2 52090  53.2142 204.4253 0002415  59.0971 341.1423 15.08847246 23073,6917.858,95.437,541.394,538.053,0.0
52090.0,STARLINK-3712,PAYLOAD,2022-08-09 12:00:00,15.08837908,0.0002477,53.2138,201.808,53.0743,277.464,-0.00027054,-4.591e-05,0.0,0 STARLINK-3712,1 52090U 22029C   22221.50001157 -.00004591  00000-0 -27054-3 0  9991,2 52090  53.2138 201.8080 0002477  53.0743 277.4640 15.08837908 23151,6917.887,95.438,541.465,538.038,0.0
52090.0,STARLINK-3712,PAYLOAD,2022-08-09 14:00:01,15.08849624,0.0002449,53.2139,201.4334,54.7156,8.7172,-0.0019024,-0.00030447,0.0,0 STARLINK-3712,1 52090U 22029C   22221.58334491 -.00030447  00000-0 -19024-2 0  9995,2 52090  53.2139 201.4334 0002449  54.7156   8.7172 15.08849624  1301,6917.851,95.437,541.41,538.0219999999998,0.0
52090.0,STARLINK-3712,PAYLOAD,2022-08-09 22:00:00,15.08838575,0.0002328,53.2142,199.9359,59.6955,15.3301,6.2104e-05,7.000000000000003e-06,0.0,0 STARLINK-3712,1 52090U 22029C   22221.91667824  .00000700  00000-0  62104-4 0  9997,2 52090  53.2142 199.9359 0002328  59.6955  15.3301 15.08838575  1301,6917.885,95.438,541.36,538.139,0.0
52090.0,STARLINK-3712,PAYLOAD,2022-08-10 14:00:01,15.08835946,0.0002343,53.2139,196.9441,55.8102,42.3806,-0.0018702,-0.00029927,0.0,0 STARLINK-3712,1 52090U 22029C   22222.58334491 -.00029927  00000-0 -18702-2 0  9999,2 52090  53.2139 196.9441 0002343  55.8102  42.3806 15.08835946  1304,6917.893,95.438,541.379,538.137,0.0
52090.0,STARLINK-3712,PAYLOAD,2022-08-10 22:00:00,15.08818839,0.0002282,53.2141,195.4467,61.2846,48.4807,0.0013974,0.00022009,0.0,0 STARLINK-3712,1 52090U 22029C   22222.91667824  .00022009  00000-0  13974-2 0  9993,2 52090  53.2141 195.4467 0002282  61.2846  48.4807 15.08818839  1307,6917.945,95.439,541.389,538.231,0.0
52090.0,STARLINK-3712,PAYLOAD,2022-08-11 04:00:00,15.08835571,0.000239,53.214,194.326,57.6007,330.8476,-0.0013223,-0.0002126999999999,0.0,0 STARLINK-3712,1 52090U 22029C   22223.16667824 -.00021270  00000-0 -13223-2 0  9999,2 52090  53.2140 194.3260 0002390  57.6007 330.8476 15.08835571 23411,6917.894,95.438,541.4119999999998,538.106,0.0
52090.0,STARLINK-3712,PAYLOAD,2022-08-11 14:00:01,15.08846009,0.0002358,53.2138,192.4548,58.4096,74.512,-0.0018565,-0.00029719,0.0,0 STARLINK-3712,1 52090U 22029C   22223.58334491 -.00029719  00000-0 -18565-2 0  9996,2 52090  53.2138 192.4548 0002358  58.4096  74.5120 15.08846009  1307,6917.861999999999,95.437,541.3580000000002,538.096,0.0
52090.0,STARLINK-3712,PAYLOAD,2022-08-11 20:00:01,15.0881495,0.0002293,53.2139,191.3316,62.6402,348.9817,0.002919,0.00046443,0.0,0 STARLINK-3712,1 52090U 22029C   22223.83334491  .00046443  00000-0  29190-2 0  9991,2 52090  53.2139 191.3316 0002293  62.6402 348.9817 15.08814950 23513,6917.956999999999,95.439,541.408,538.236,0.0
52090.0,STARLINK-3712,PAYLOAD,2022-08-12 14:00:01,15.08864728,0.0002383,53.214,187.9655,60.4155,107.2925,-0.0015,-0.00024099,0.0,0 STARLINK-3712,1 52090U 22029C   22224.58334491 -.00024099  00000-0 -15000-2 0  9994,2 52090  53.2140 187.9655 0002383  60.4155 107.2925 15.08864728 23629,6917.805,95.436,541.318,538.021,0.0
52090.0,STARLINK-3712,PAYLOAD,2022-08-12 22:00:01,15.08868428,0.0002371,53.2144,186.4685,64.7357,114.6412,-0.0013526,-0.00021768,0.0,0 STARLINK-3712,1 52090U 22029C   22224.91668981 -.00021768  00000-0 -13526-2 0  9996,2 52090  53.2144 186.4685 0002371  64.7357 114.6412 15.08868428  1303,6917.793000000002,95.436,541.299,538.018,0.0
52090.0,STARLINK-3712,PAYLOAD,2022-08-13 14:00:01,15.08845538,0.0002269,53.2145,183.4761,59.0601,143.4626,-0.0037667,-0.0005974999999999,0.0,0 STARLINK-3712,1 52090U 22029C   22225.58334491 -.00059750  00000-0 -37667-2 0  9990,2 52090  53.2145 183.4761 0002269  59.0601 143.4626 15.08845538  1305,6917.863,95.437,541.298,538.159,0.0
52090.0,STARLINK-3712,PAYLOAD,2022-08-13 22:00:00,15.08819756,0.0002268,53.2148,181.9794,63.0407,151.0538,0.00041232,6.276e-05,0.0,0 STARLINK-3712,1 52090U 22029C   22225.91667824  .00006276  00000-0  41232-3 0  9993,2 52090  53.2148 181.9794 0002268  63.0407 151.0538 15.08819756 23826,6917.941999999999,95.439,541.376,538.238,0.0
52090.0,STARLINK-3712,PAYLOAD,2022-08-14 12:00:00,15.08845851,0.0002368,53.2149,179.3615,58.4975,85.9143,-0.0014292999999999,-0.00022968,0.0,0 STARLINK-3712,1 52090U 22029C   22226.50001157 -.00022968  00000-0 -14293-2 0  9994,2 52090  53.2149 179.3615 0002368  58.4975  85.9143 15.08845851 23911,6917.863,95.437,541.366,538.089,0.0
52090.0,STARLINK-3712,PAYLOAD,2022-08-14 14:00:01,15.08842886,0.0002319999999999,53.2151,178.9869,60.1101,177.2008,-0.0011415999999999,-0.00018413,0.0,0 STARLINK-3712,1 52090U 22029C   22226.58334491 -.00018413  00000-0 -11416-2 0  9996,2 52090  53.2151 178.9869 0002320  60.1101 177.2008 15.08842886  1308,6917.871999999999,95.437,541.342,538.132,0.0
52090.0,STARLINK-3712,PAYLOAD,2022-08-14 22:00:00,15.08850511,0.0002334,53.2153,177.4903,64.0311,184.865,-0.00028269,-4.786e-05,0.0,0 STARLINK-3712,1 52090U 22029C   22226.91667824 -.00004786  00000-0 -28269-3 0  9995,2 52090  53.2153 177.4903 0002334  64.0311 184.8650 15.08850511  1305,6917.848000000001,95.437,541.328,538.099,0.0
52090.0,STARLINK-3712,PAYLOAD,2022-08-15 06:00:00,15.08821743,0.0002440999999999,53.2154,175.9956,57.9677,202.5409,0.00056785,8.756e-05,0.0,0 STARLINK-3712,1 52090U 22029C   22227.25001157  .00008756  00000-0  56785-3 0  9997,2 52090  53.2154 175.9956 0002441  57.9677 202.5409 15.08821743 24021,6917.936,95.439,541.49,538.113,0.0
52090.0,STARLINK-3712,PAYLOAD,2022-08-15 14:00:01,15.08834001,0.0002286,53.2156,174.4977,60.6505,211.4355,-0.00075863,-0.0001234,0.0,0 STARLINK-3712,1 52090U 22029C   22227.58334491 -.00012340  00000-0 -75863-3 0  9997,2 52090  53.2156 174.4977 0002286  60.6505 211.4355 15.08834001  1304,6917.899,95.438,541.345,538.182,0.0
52090.0,STARLINK-3712,PAYLOAD,2022-08-15 22:00:00,15.0884389,0.0002307,53.2157,173.0012,64.2505,219.4116,-0.00011365,-2.097e-05,0.0,0 STARLINK-3712,1 52090U 22029C   22227.91667824 -.00002097  00000-0 -11365-3 0  9998,2 52090  53.2157 173.0012 0002307  64.2505 219.4116 15.08843890  1303,6917.868,95.437,541.3290000000002,538.138,0.0
